$$SOE
2460728.500000000, A.D. 2025-Feb-22 00:00:00.0000, 1.977060004577927E+08, -1.903901263532671E+08, 1.345761469001227E+07,
2460735.500000000, A.D. 2025-Mar-01 00:00:00.0000, 2.077525573286827E+08, -1.800463169025142E+08, 1.245840668160874E+07,
2460742.500000000, A.D. 2025-Mar-08 00:00:00.0000, 2.173153773291833E+08, -1.692832842009184E+08, 1.143018584105152E+07,
2460749.500000000, A.D. 2025-Mar-15 00:00:00.0000, 2.263749956236687E+08, -1.581282592911983E+08, 1.037549261399256E+07,
2460756.500000000, A.D. 2025-Mar-22 00:00:00.0000, 2.349139777687238E+08, -1.466095350775284E+08, 9.296930966600887E+06,
2460763.500000000, A.D. 2025-Mar-29 00:00:00.0000, 2.429169796087550E+08, -1.347562733717794E+08, 8.197151160123020E+06,
2460770.500000000, A.D. 2025-Apr-05 00:00:00.0000, 2.503707856394766E+08, -1.225983086841197E+08, 7.078832542337291E+06,
2460777.500000000, A.D. 2025-Apr-12 00:00:00.0000, 2.572643243389620E+08, -1.101659518473635E+08, 5.944666804404497E+06,
2460784.500000000, A.D. 2025-Apr-19 00:00:00.0000, 2.635886611882899E+08, -9.748979735625815E+07, 4.797341888714273E+06,
2460791.500000000, A.D. 2025-Apr-26 00:00:00.0000, 2.693369709877168E+08, -8.460053735305288E+07, 3.639526718228258E+06,
2460798.500000000, A.D. 2025-May-03 00:00:00.0000, 2.745044912712036E+08, -7.152878463725390E+07, 2.473856918138810E+06,
2460805.500000000, A.D. 2025-May-10 00:00:00.0000, 2.790884588141393E+08, -5.830490671499140E+07, 1.302921672824770E+06,
2460812.500000000, A.D. 2025-May-17 00:00:00.0000, 2.830880314331104E+08, -4.495887255714427E+07, 1.292518203562982E+05,
2460819.500000000, A.D. 2025-May-24 00:00:00.0000, 2.865041975255951E+08, -3.152011334676158E+07, -1.044690763032010E+06,
2460826.500000000, A.D. 2025-May-31 00:00:00.0000, 2.893396760727987E+08, -1.801739773078523E+07, -2.216522462977974E+06,
2460833.500000000, A.D. 2025-Jun-07 00:00:00.0000, 2.915988089897652E+08, -4.478720812303735E+06, -3.383945766948527E+06,
2460840.500000000, A.D. 2025-Jun-14 00:00:00.0000, 2.932874456784196E+08, 9.068792343944650E+06, -4.544755498930448E+06,
2460847.500000000, A.D. 2025-Jun-21 00:00:00.0000, 2.944128230782242E+08, 2.259896560831048E+07, -5.696843871665562E+06,
2460854.500000000, A.D. 2025-Jun-28 00:00:00.0000, 2.949834462376030E+08, 3.608663530576215E+07, -6.838204563186866E+06,
2460861.500000000, A.D. 2025-Jul-05 00:00:00.0000, 2.950089695989178E+08, 4.950770118909202E+07, -7.966935580618350E+06,
2460868.500000000, A.D. 2025-Jul-12 00:00:00.0000, 2.945000793124912E+08, 6.283916489761920E+07, -9.081240957813408E+06,
2460875.500000000, A.D. 2025-Jul-19 00:00:00.0000, 2.934683780556961E+08, 7.605915628178580E+07, -1.017943144956429E+07,
2460882.500000000, A.D. 2025-Jul-26 00:00:00.0000, 2.919262736288875E+08, 8.914694857402109E+07, -1.125992434883347E+07,
2460889.500000000, A.D. 2025-Aug-02 00:00:00.0000, 2.898868722395571E+08, 1.020829635178241E+08, -1.232124253399140E+07,
2460896.500000000, A.D. 2025-Aug-09 00:00:00.0000, 2.873638771525229E+08, 1.148487675594199E+08, -1.336201284948148E+07,
2460903.500000000, A.D. 2025-Aug-16 00:00:00.0000, 2.843714932755128E+08, 1.274270601551938E+08, -1.438096392874895E+07,
2460910.500000000, A.D. 2025-Aug-23 00:00:00.0000, 2.809243383207161E+08, 1.398016552892031E+08, -1.537692357834119E+07,
2460917.500000000, A.D. 2025-Aug-30 00:00:00.0000, 2.770373610746183E+08, 1.519574579267159E+08, -1.634881578412245E+07,
2460924.500000000, A.D. 2025-Sep-06 00:00:00.0000, 2.727257654193096E+08, 1.638804373499997E+08, -1.729565720897678E+07,
2460931.500000000, A.D. 2025-Sep-13 00:00:00.0000, 2.680049383960794E+08, 1.755575957826886E+08, -1.821655330490341E+07,
2460938.500000000, A.D. 2025-Sep-20 00:00:00.0000, 2.628903854695323E+08, 1.869769314652702E+08, -1.911069454197003E+07,
2460945.500000000, A.D. 2025-Sep-27 00:00:00.0000, 2.573976738513355E+08, 1.981274000157669E+08, -1.997735265625338E+07,
2460952.500000000, A.D. 2025-Oct-04 00:00:00.0000, 2.515423816124761E+08, 2.089988752667278E+08, -2.081587673860738E+07,
2460959.500000000, A.D. 2025-Oct-11 00:00:00.0000, 2.453400519226314E+08, 2.195821092132951E+08, -2.162568925146157E+07,
2460966.500000000, A.D. 2025-Oct-18 00:00:00.0000, 2.388061523867368E+08, 2.298686913009742E+08, -2.240628206033912E+07,
2460973.500000000, A.D. 2025-Oct-25 00:00:00.0000, 2.319560392870151E+08, 2.398510074964131E+08, -2.315721252421305E+07,
2460980.500000000, A.D. 2025-Nov-01 00:00:00.0000, 2.248049264288020E+08, 2.495221995230406E+08, -2.387809967351338E+07,
2460987.500000000, A.D. 2025-Nov-08 00:00:00.0000, 2.173678582800211E+08, 2.588761245361958E+08, -2.456862050257581E+07,
2460994.500000000, A.D. 2025-Nov-15 00:00:00.0000, 2.096596872091631E+08, 2.679073154319232E+08, -2.522850641110818E+07,
2461001.500000000, A.D. 2025-Nov-22 00:00:00.0000, 2.016950548892380E+08, 2.766109422166228E+08, -2.585753982616395E+07,
2461008.500000000, A.D. 2025-Nov-29 00:00:00.0000, 1.934883773923819E+08, 2.849827757366884E+08, -2.645555090765005E+07,
2461015.500000000, A.D. 2025-Dec-06 00:00:00.0000, 1.850538313846734E+08, 2.930191537553114E+08, -2.702241414558102E+07,
2461022.500000000, A.D. 2025-Dec-13 00:00:00.0000, 1.764053415582232E+08, 3.007169461091722E+08, -2.755804516813934E+07,
2461029.500000000, A.D. 2025-Dec-20 00:00:00.0000, 1.675565725303182E+08, 3.080735200467560E+08, -2.806239800221767E+07,
2461036.500000000, A.D. 2025-Dec-27 00:00:00.0000, 1.585209238880728E+08, 3.150867083796952E+08, -2.853546247795965E+07,
2461043.500000000, A.D. 2026-Jan-03 00:00:00.0000, 1.493115266832671E+08, 3.217547798497244E+08, -2.897726169231534E+07,
2461050.500000000, A.D. 2026-Jan-10 00:00:00.0000, 1.399412412692189E+08, 3.280764110354879E+08, -2.938784959442660E+07,
2461057.500000000, A.D. 2026-Jan-17 00:00:00.0000, 1.304226565119184E+08, 3.340506596965784E+08, -2.976730871791035E+07,
2461064.500000000, A.D. 2026-Jan-24 00:00:00.0000, 1.207680902694489E+08, 3.396769395547481E+08, -3.011574806073493E+07,
2461071.500000000, A.D. 2026-Jan-31 00:00:00.0000, 1.109895909951122E+08, 3.449549964730518E+08, -3.043330111025155E+07,
2461078.500000000, A.D. 2026-Feb-07 00:00:00.0000, 1.010989403729653E+08, 3.498848859367188E+08, -3.072012401811035E+07,
2461085.500000000, A.D. 2026-Feb-14 00:00:00.0000, 9.110765710035700E+07, 3.544669517766345E+08, -3.097639394372539E+07,
2461092.500000000, A.D. 2026-Feb-21 00:00:00.0000, 8.102700208064216E+07, 3.587018066661451E+08, -3.120230754910021E+07,
2461099.500000000, A.D. 2026-Feb-28 00:00:00.0000, 7.086798383213982E+07, 3.625903154948208E+08, -3.139807944604725E+07,
2461106.500000000, A.D. 2026-Mar-07 00:00:00.0000, 6.064136195566688E+07, 3.661335796099141E+08, -3.156394055964944E+07,
2461113.500000000, A.D. 2026-Mar-14 00:00:00.0000, 5.035765134117057E+07, 3.693329195371075E+08, -3.170013684616061E+07,
2461120.500000000, A.D. 2026-Mar-21 00:00:00.0000, 4.002712881737205E+07, 3.721898590321891E+08, -3.180692828783321E+07,
2461127.500000000, A.D. 2026-Mar-28 00:00:00.0000, 2.965984016845464E+07, 3.747061114390188E+08, -3.188458789157391E+07,
2461134.500000000, A.D. 2026-Apr-04 00:00:00.0000, 1.926560685251464E+07, 3.768835673330582E+08, -3.193340070938854E+07,
2461141.500000000, A.D. 2026-Apr-11 00:00:00.0000, 8.854032641982865E+06, 3.787242830379599E+08, -3.195366292993735E+07,
2461148.500000000, A.D. 2026-Apr-18 00:00:00.0000, -1.565489700413472E+06, 3.802304699560879E+08, -3.194568105114369E+07,
2461155.500000000, A.D. 2026-Apr-25 00:00:00.0000, -1.198377170455703E+07, 3.814044846742416E+08, -3.190977113120823E+07,
2461162.500000000, A.D. 2026-May-02 00:00:00.0000, -2.239182244162899E+07, 3.822488197623215E+08, -3.184625811735061E+07,
2461169.500000000, A.D. 2026-May-09 00:00:00.0000, -3.278084164990558E+07, 3.827660951506986E+08, -3.175547526375446E+07,
2461176.500000000, A.D. 2026-May-16 00:00:00.0000, -4.314221239217695E+07, 3.829590501839350E+08, -3.163776365805238E+07,
2461183.500000000, A.D. 2026-May-23 00:00:00.0000, -5.346749321938257E+07, 3.828305373395519E+08, -3.149347177506959E+07,
2461190.500000000, A.D. 2026-May-30 00:00:00.0000, -6.374841193662299E+07, 3.823835179002558E+08, -3.132295483939262E+07,
2461197.500000000, A.D. 2026-Jun-06 00:00:00.0000, -7.397686130089313E+07, 3.816210562679077E+08, -3.112657423188274E+07,
2461204.500000000, A.D. 2026-Jun-13 00:00:00.0000, -8.414489300098868E+07, 3.805463130801247E+08, -3.090469725615048E+07,
2461211.500000000, A.D. 2026-Jun-20 00:00:00.0000, -9.424471043468958E+07, 3.791625400275612E+08, -3.065769697807954E+07,
2461218.500000000, A.D. 2026-Jun-27 00:00:00.0000, -1.042686619898886E+08, 3.774730760025587E+08, -3.038595200823693E+07,
2461225.500000000, A.D. 2026-Jul-04 00:00:00.0000, -1.142092348382173E+08, 3.754813437738898E+08, -3.008984628773534E+07,
2461232.500000000, A.D. 2026-Jul-11 00:00:00.0000, -1.240590489954564E+08, 3.731908470285261E+08, -2.976976890926783E+07,
2461239.500000000, A.D. 2026-Jul-18 00:00:00.0000, -1.338108515628995E+08, 3.706051677818823E+08, -2.942611397775151E+07,
2461246.500000000, A.D. 2026-Jul-25 00:00:00.0000, -1.434575111308308E+08, 3.677279641370851E+08, -2.905928051083326E+07,
2461253.500000000, A.D. 2026-Aug-01 00:00:00.0000, -1.529920123005838E+08, 3.645629683247296E+08, -2.866967238595368E+07,
2461260.500000000, A.D. 2026-Aug-08 00:00:00.0000, -1.624074501141385E+08, 3.611139849683611E+08, -2.825769835502775E+07,
2461267.500000000, A.D. 2026-Aug-15 00:00:00.0000, -1.716970239799142E+08, 3.573848900088111E+08, -2.782377212651828E+07,
2461274.500000000, A.D. 2026-Aug-22 00:00:00.0000, -1.808540318600049E+08, 3.533796314943633E+08, -2.736831234423763E+07,
2461281.500000000, A.D. 2026-Aug-29 00:00:00.0000, -1.898718670100686E+08, 3.491022308528800E+08, -2.689174236446805E+07,
2461288.500000000, A.D. 2026-Sep-05 00:00:00.0000, -1.987440151367555E+08, 3.445567817628294E+08, -2.639449025965010E+07,
2461295.500000000, A.D. 2026-Sep-12 00:00:00.0000, -2.074640495213335E+08, 3.397474491032789E+08, -2.587698906789024E+07,
$$EOE